SL-16 R/B               
1 22566U 93016B   26003.40327529  .00000000  00000+0  24463-4 0  9995
2 22566  71.0089 352.3027 0008094  53.7633 306.4237 14.15296485692937
COSMOS 2242             
1 22626U 93024A   26003.43860458  .00004730  00000+0  41609-3 0  9991
2 22626  82.5199 329.1029 0016851 158.8565 201.3358 14.96221705770631
SL-16 R/B               
1 22803U 93059B   26003.47135076 -.00000090  00000+0 -20623-4 0  9992
2 22803  70.9901 148.6603 0019188 304.9192  55.0128 14.17219447670291
ARIANE 40 R/B           
1 22830U 93061H   26003.47602494  .00000578  00000+0  22772-3 0  9993
2 22830  98.5044  73.6078 0011752 115.7370 244.5028 14.32819275684766
COSMOS 2278             
1 23087U 94023A   26003.24851272  .00000476  00000+0  27314-3 0  9996
2 23087  71.0543 312.0101 0007389 140.4467 219.7196 14.14354965635554
SL-16 R/B               
1 23088U 94023B   26003.25401284  .00000204  00000+0  12981-3 0  9995
2 23088  70.9978 208.3060 0002554 354.9702   5.1395 14.14999308636835
SL-16 R/B               
1 23343U 94074B   26003.04334630  .00000986  00000+0  13901-3 0  9992
2 23343  97.7181  36.4990 0007984  77.8723 311.3636 14.79319503677547
SL-16 R/B               
1 23405U 94077B   26003.47314147 -.00000103  00000+0 -28368-4 0  9999
2 23405  70.9826 129.6930 0004997 266.5499  93.5053 14.15550065607008
ARIANE 40+ R/B          
1 23561U 95021B   26003.48002666  .00000642  00000+0  21889-3 0  9999
2 23561  98.4622  75.8039 0006343 346.0784  24.7900 14.39715996609865
SL-16 R/B               
1 23705U 95058B   26003.26492098  .00000333  00000+0  19463-3 0  9999
2 23705  71.0224 317.6120 0014230 226.3173 133.6772 14.15484256558590
SL-16 R/B               
1 24298U 96051B   26003.30182887  .00000054  00000+0  56000-4 0  9997
2 24298  70.7599 313.6430 0019390 234.9166 125.0136 14.12399283512410
ORBVIEW 2 (SEASTAR)     
1 24883U 97037A   26003.45428028  .00000639  00000+0  23881-3 0  9997
2 24883  98.8472 166.0775 0001377 239.0060 121.0989 14.35437311499111
