CCSDS_OMM_VERS = 2.0
CREATION_DATE  = 
ORIGINATOR     = 

OBJECT_NAME    = SL-16 R/B
OBJECT_ID      = 1993-016B
CENTER_NAME    = EARTH
REF_FRAME      = TEME
TIME_SYSTEM    = UTC
MEAN_ELEMENT_THEORY = SGP/SGP4

EPOCH          = 2026-01-03T09:40:42.985056
MEAN_MOTION    = 14.15296485
ECCENTRICITY   = .0008094
INCLINATION    = 71.0089
RA_OF_ASC_NODE = 352.3027
ARG_OF_PERICENTER = 53.7633
MEAN_ANOMALY   = 306.4237

EPHEMERIS_TYPE = 0
CLASSIFICATION_TYPE = U
NORAD_CAT_ID   = 22566
ELEMENT_SET_NO = 999
REV_AT_EPOCH   = 69293
BSTAR          = .24463E-4
MEAN_MOTION_DOT = 0
MEAN_MOTION_DDOT = 0

CCSDS_OMM_VERS = 2.0
CREATION_DATE  = 
ORIGINATOR     = 

OBJECT_NAME    = COSMOS 2242
OBJECT_ID      = 1993-024A
CENTER_NAME    = EARTH
REF_FRAME      = TEME
TIME_SYSTEM    = UTC
MEAN_ELEMENT_THEORY = SGP/SGP4

EPOCH          = 2026-01-03T10:31:35.435712
MEAN_MOTION    = 14.96221705
ECCENTRICITY   = .0016851
INCLINATION    = 82.5199
RA_OF_ASC_NODE = 329.1029
ARG_OF_PERICENTER = 158.8565
MEAN_ANOMALY   = 201.3358

EPHEMERIS_TYPE = 0
CLASSIFICATION_TYPE = U
NORAD_CAT_ID   = 22626
ELEMENT_SET_NO = 999
REV_AT_EPOCH   = 77063
BSTAR          = .41609E-3
MEAN_MOTION_DOT = .473E-4
MEAN_MOTION_DDOT = 0

CCSDS_OMM_VERS = 2.0
CREATION_DATE  = 
ORIGINATOR     = 

OBJECT_NAME    = SL-16 R/B
OBJECT_ID      = 1993-059B
CENTER_NAME    = EARTH
REF_FRAME      = TEME
TIME_SYSTEM    = UTC
MEAN_ELEMENT_THEORY = SGP/SGP4

EPOCH          = 2026-01-03T11:18:44.705664
MEAN_MOTION    = 14.17219447
ECCENTRICITY   = .0019188
INCLINATION    = 70.9901
RA_OF_ASC_NODE = 148.6603
ARG_OF_PERICENTER = 304.9192
MEAN_ANOMALY   = 55.0128

EPHEMERIS_TYPE = 0
CLASSIFICATION_TYPE = U
NORAD_CAT_ID   = 22803
ELEMENT_SET_NO = 999
REV_AT_EPOCH   = 67029
BSTAR          = -.20623E-4
MEAN_MOTION_DOT = -.9E-6
MEAN_MOTION_DDOT = 0

CCSDS_OMM_VERS = 2.0
CREATION_DATE  = 
ORIGINATOR     = 

OBJECT_NAME    = ARIANE 40 R/B
OBJECT_ID      = 1993-061H
CENTER_NAME    = EARTH
REF_FRAME      = TEME
TIME_SYSTEM    = UTC
MEAN_ELEMENT_THEORY = SGP/SGP4

EPOCH          = 2026-01-03T11:25:28.554816
MEAN_MOTION    = 14.32819275
ECCENTRICITY   = .0011752
INCLINATION    = 98.5044
RA_OF_ASC_NODE = 73.6078
ARG_OF_PERICENTER = 115.7370
MEAN_ANOMALY   = 244.5028

EPHEMERIS_TYPE = 0
CLASSIFICATION_TYPE = U
NORAD_CAT_ID   = 22830
ELEMENT_SET_NO = 999
REV_AT_EPOCH   = 68476
BSTAR          = .22772E-3
MEAN_MOTION_DOT = .578E-5
MEAN_MOTION_DDOT = 0

CCSDS_OMM_VERS = 2.0
CREATION_DATE  = 
ORIGINATOR     = 

OBJECT_NAME    = COSMOS 2278
OBJECT_ID      = 1994-023A
CENTER_NAME    = EARTH
REF_FRAME      = TEME
TIME_SYSTEM    = UTC
MEAN_ELEMENT_THEORY = SGP/SGP4

EPOCH          = 2026-01-03T05:57:51.499008
MEAN_MOTION    = 14.14354965
ECCENTRICITY   = .0007389
INCLINATION    = 71.0543
RA_OF_ASC_NODE = 312.0101
ARG_OF_PERICENTER = 140.4467
MEAN_ANOMALY   = 219.7196

EPHEMERIS_TYPE = 0
CLASSIFICATION_TYPE = U
NORAD_CAT_ID   = 23087
ELEMENT_SET_NO = 999
REV_AT_EPOCH   = 63555
BSTAR          = .27314E-3
MEAN_MOTION_DOT = .476E-5
MEAN_MOTION_DDOT = 0

CCSDS_OMM_VERS = 2.0
CREATION_DATE  = 
ORIGINATOR     = 

OBJECT_NAME    = SL-16 R/B
OBJECT_ID      = 1994-023B
CENTER_NAME    = EARTH
REF_FRAME      = TEME
TIME_SYSTEM    = UTC
MEAN_ELEMENT_THEORY = SGP/SGP4

EPOCH          = 2026-01-03T06:05:46.709376
MEAN_MOTION    = 14.14999308
ECCENTRICITY   = .0002554
INCLINATION    = 70.9978
RA_OF_ASC_NODE = 208.3060
ARG_OF_PERICENTER = 354.9702
MEAN_ANOMALY   = 5.1395

EPHEMERIS_TYPE = 0
CLASSIFICATION_TYPE = U
NORAD_CAT_ID   = 23088
ELEMENT_SET_NO = 999
REV_AT_EPOCH   = 63683
BSTAR          = .12981E-3
MEAN_MOTION_DOT = .204E-5
MEAN_MOTION_DDOT = 0

CCSDS_OMM_VERS = 2.0
CREATION_DATE  = 
ORIGINATOR     = 

OBJECT_NAME    = SL-16 R/B
OBJECT_ID      = 1994-074B
CENTER_NAME    = EARTH
REF_FRAME      = TEME
TIME_SYSTEM    = UTC
MEAN_ELEMENT_THEORY = SGP/SGP4

EPOCH          = 2026-01-03T01:02:25.120320
MEAN_MOTION    = 14.79319503
ECCENTRICITY   = .00079842
INCLINATION    = 97.7181
RA_OF_ASC_NODE = 36.4990
ARG_OF_PERICENTER = 77.8723
MEAN_ANOMALY   = 311.3636

EPHEMERIS_TYPE = 0
CLASSIFICATION_TYPE = U
NORAD_CAT_ID   = 23343
ELEMENT_SET_NO = 999
REV_AT_EPOCH   = 67754
BSTAR          = .13900503E-3
MEAN_MOTION_DOT = .986E-5
MEAN_MOTION_DDOT = 0

CCSDS_OMM_VERS = 2.0
CREATION_DATE  = 
ORIGINATOR     = 

OBJECT_NAME    = SL-16 R/B
OBJECT_ID      = 1994-077B
CENTER_NAME    = EARTH
REF_FRAME      = TEME
TIME_SYSTEM    = UTC
MEAN_ELEMENT_THEORY = SGP/SGP4

EPOCH          = 2026-01-03T11:21:19.423008
MEAN_MOTION    = 14.15550065
ECCENTRICITY   = .0004997
INCLINATION    = 70.9826
RA_OF_ASC_NODE = 129.6930
ARG_OF_PERICENTER = 266.5499
MEAN_ANOMALY   = 93.5053

EPHEMERIS_TYPE = 0
CLASSIFICATION_TYPE = U
NORAD_CAT_ID   = 23405
ELEMENT_SET_NO = 999
REV_AT_EPOCH   = 60700
BSTAR          = -.28368E-4
MEAN_MOTION_DOT = -.103E-5
MEAN_MOTION_DDOT = 0

CCSDS_OMM_VERS = 2.0
CREATION_DATE  = 
ORIGINATOR     = 

OBJECT_NAME    = ARIANE 40+ R/B
OBJECT_ID      = 1995-021B
CENTER_NAME    = EARTH
REF_FRAME      = TEME
TIME_SYSTEM    = UTC
MEAN_ELEMENT_THEORY = SGP/SGP4

EPOCH          = 2026-01-03T11:31:14.303424
MEAN_MOTION    = 14.39715996
ECCENTRICITY   = .0006343
INCLINATION    = 98.4622
RA_OF_ASC_NODE = 75.8039
ARG_OF_PERICENTER = 346.0784
MEAN_ANOMALY   = 24.7900

EPHEMERIS_TYPE = 0
CLASSIFICATION_TYPE = U
NORAD_CAT_ID   = 23561
ELEMENT_SET_NO = 999
REV_AT_EPOCH   = 60986
BSTAR          = .21889E-3
MEAN_MOTION_DOT = .642E-5
MEAN_MOTION_DDOT = 0

CCSDS_OMM_VERS = 2.0
CREATION_DATE  = 
ORIGINATOR     = 

OBJECT_NAME    = SL-16 R/B
OBJECT_ID      = 1995-058B
CENTER_NAME    = EARTH
REF_FRAME      = TEME
TIME_SYSTEM    = UTC
MEAN_ELEMENT_THEORY = SGP/SGP4

EPOCH          = 2026-01-03T06:21:29.172672
MEAN_MOTION    = 14.15484256
ECCENTRICITY   = .001423
INCLINATION    = 71.0224
RA_OF_ASC_NODE = 317.6120
ARG_OF_PERICENTER = 226.3173
MEAN_ANOMALY   = 133.6772

EPHEMERIS_TYPE = 0
CLASSIFICATION_TYPE = U
NORAD_CAT_ID   = 23705
ELEMENT_SET_NO = 999
REV_AT_EPOCH   = 55859
BSTAR          = .19463E-3
MEAN_MOTION_DOT = .333E-5
MEAN_MOTION_DDOT = 0

CCSDS_OMM_VERS = 2.0
CREATION_DATE  = 
ORIGINATOR     = 

OBJECT_NAME    = SL-16 R/B
OBJECT_ID      = 1996-051B
CENTER_NAME    = EARTH
REF_FRAME      = TEME
TIME_SYSTEM    = UTC
MEAN_ELEMENT_THEORY = SGP/SGP4

EPOCH          = 2026-01-03T07:14:38.014368
MEAN_MOTION    = 14.12399283
ECCENTRICITY   = .001939
INCLINATION    = 70.7599
RA_OF_ASC_NODE = 313.6430
ARG_OF_PERICENTER = 234.9166
MEAN_ANOMALY   = 125.0136

EPHEMERIS_TYPE = 0
CLASSIFICATION_TYPE = U
NORAD_CAT_ID   = 24298
ELEMENT_SET_NO = 999
REV_AT_EPOCH   = 51241
BSTAR          = .56E-4
MEAN_MOTION_DOT = .54E-6
MEAN_MOTION_DDOT = 0

CCSDS_OMM_VERS = 2.0
CREATION_DATE  = 
ORIGINATOR     = 

OBJECT_NAME    = ORBVIEW 2 (SEASTAR)
OBJECT_ID      = 1997-037A
CENTER_NAME    = EARTH
REF_FRAME      = TEME
TIME_SYSTEM    = UTC
MEAN_ELEMENT_THEORY = SGP/SGP4

EPOCH          = 2026-01-03T10:54:09.816192
MEAN_MOTION    = 14.35437311
ECCENTRICITY   = .0001377
INCLINATION    = 98.8472
RA_OF_ASC_NODE = 166.0775
ARG_OF_PERICENTER = 239.0060
MEAN_ANOMALY   = 121.0989

EPHEMERIS_TYPE = 0
CLASSIFICATION_TYPE = U
NORAD_CAT_ID   = 24883
ELEMENT_SET_NO = 999
REV_AT_EPOCH   = 49911
BSTAR          = .23881E-3
MEAN_MOTION_DOT = .639E-5
MEAN_MOTION_DDOT = 0

